{
  "type": "FeatureCollection",
  "features": [
    {
      "type": "Feature",
      "properties": {
        "norad_id": 34540,
        "name": "IRIDIUM 33 DEB",
        "group": "iridium-33-debris",
        "lat": 57.44048792530007,
        "lon": 122.2090903729922,
        "alt_km": 630.0615528646294,
        "timestamp": "2025-12-11T20:41:15.465941+00:00",
        "meta_object_name": "IRIDIUM 33 DEB",
        "meta_object_id": "1997-051JH",
        "meta_epoch": "2025-12-11T15:48:51.253056",
        "meta_mean_motion": 14.75284655,
        "meta_eccentricity": 0.00162285,
        "meta_inclination": 86.3108,
        "meta_ra_of_asc_node": 308.1013,
        "meta_arg_of_pericenter": 162.9977,
        "meta_mean_anomaly": 321.6929,
        "meta_ephemeris_type": 0,
        "meta_classification_type": "U",
        "meta_norad_cat_id": 34540,
        "meta_element_set_no": 999,
        "meta_rev_at_epoch": 89005,
        "meta_bstar": 0.002611865,
        "meta_mean_motion_dot": 0.00017769,
        "meta_mean_motion_ddot": 0,
        "tle_line1": "1 34540U 97051JH  25345.65892654  .00017769  00000+0  26119-2 0  9992",
        "tle_line2": "2 34540  86.3108 308.1013 0016228 162.9977 321.6929 14.75284655890051"
      },
      "geometry": {
        "type": "Point",
        "coordinates": [
          122.2090903729922,
          57.44048792530007
        ]
      }
    },
    {
      "type": "Feature",
      "properties": {
        "norad_id": 34648,
        "name": "IRIDIUM 33 DEB",
        "group": "iridium-33-debris",
        "lat": 68.66846382406796,
        "lon": 92.99879899255006,
        "alt_km": 977.8177173195436,
        "timestamp": "2025-12-11T20:41:15.465952+00:00",
        "meta_object_name": "IRIDIUM 33 DEB",
        "meta_object_id": "1997-051JZ",
        "meta_epoch": "2025-12-11T13:21:05.102784",
        "meta_mean_motion": 14.11443671,
        "meta_eccentricity": 0.01830215,
        "meta_inclination": 86.3904,
        "meta_ra_of_asc_node": 282.4242,
        "meta_arg_of_pericenter": 302.6046,
        "meta_mean_anomaly": 55.7583,
        "meta_ephemeris_type": 0,
        "meta_classification_type": "U",
        "meta_norad_cat_id": 34648,
        "meta_element_set_no": 999,
        "meta_rev_at_epoch": 84944,
        "meta_bstar": 0.011270699,
        "meta_mean_motion_dot": 0.00023967,
        "meta_mean_motion_ddot": 0,
        "tle_line1": "1 34648U 97051JZ  25345.55630906  .00023967  00000+0  11271-1 0  9999",
        "tle_line2": "2 34648  86.3904 282.4242 0183021 302.6046  55.7583 14.11443671849441"
      },
      "geometry": {
        "type": "Point",
        "coordinates": [
          92.99879899255006,
          68.66846382406796
        ]
      }
    },
    {
      "type": "Feature",
      "properties": {
        "norad_id": 34651,
        "name": "IRIDIUM 33 DEB",
        "group": "iridium-33-debris",
        "lat": 58.257599177054395,
        "lon": -45.08011358046298,
        "alt_km": 790.3273379891434,
        "timestamp": "2025-12-11T20:41:15.465962+00:00",
        "meta_object_name": "IRIDIUM 33 DEB",
        "meta_object_id": "1997-051KC",
        "meta_epoch": "2025-12-11T10:00:09.377280",
        "meta_mean_motion": 14.25785902,
        "meta_eccentricity": 0.01420766,
        "meta_inclination": 86.2836,
        "meta_ra_of_asc_node": 141.1401,
        "meta_arg_of_pericenter": 208.1446,
        "meta_mean_anomaly": 151.2016,
        "meta_ephemeris_type": 0,
        "meta_classification_type": "U",
        "meta_norad_cat_id": 34651,
        "meta_element_set_no": 999,
        "meta_rev_at_epoch": 85877,
        "meta_bstar": 0.0064804536,
        "meta_mean_motion_dot": 0.00017162,
        "meta_mean_motion_ddot": 0,
        "tle_line1": "1 34651U 97051KC  25345.41677520  .00017162  00000+0  64805-2 0  9993",
        "tle_line2": "2 34651  86.2836 141.1401 0142076 208.1446 151.2016 14.25785902858775"
      },
      "geometry": {
        "type": "Point",
        "coordinates": [
          -45.08011358046298,
          58.257599177054395
        ]
      }
    },
    {
      "type": "Feature",
      "properties": {
        "norad_id": 34652,
        "name": "IRIDIUM 33 DEB",
        "group": "iridium-33-debris",
        "lat": 59.85344746312255,
        "lon": -13.265462760582352,
        "alt_km": 689.5938970854331,
        "timestamp": "2025-12-11T20:41:15.465972+00:00",
        "meta_object_name": "IRIDIUM 33 DEB",
        "meta_object_id": "1997-051KD",
        "meta_epoch": "2025-12-11T07:34:05.057184",
        "meta_mean_motion": 14.62038303,
        "meta_eccentricity": 0.00260123,
        "meta_inclination": 86.3317,
        "meta_ra_of_asc_node": 340.6357,
        "meta_arg_of_pericenter": 303.4759,
        "meta_mean_anomaly": 121.0337,
        "meta_ephemeris_type": 0,
        "meta_classification_type": "U",
        "meta_norad_cat_id": 34652,
        "meta_element_set_no": 999,
        "meta_rev_at_epoch": 88463,
        "meta_bstar": 0.0018117648,
        "meta_mean_motion_dot": 9.158e-05,
        "meta_mean_motion_ddot": 0,
        "tle_line1": "1 34652U 97051KD  25345.31533631  .00009158  00000+0  18118-2 0  9999",
        "tle_line2": "2 34652  86.3317 340.6357 0026012 303.4759 121.0337 14.62038303884636"
      },
      "geometry": {
        "type": "Point",
        "coordinates": [
          -13.265462760582352,
          59.85344746312255
        ]
      }
    },
    {
      "type": "Feature",
      "properties": {
        "norad_id": 34690,
        "name": "IRIDIUM 33 DEB",
        "group": "iridium-33-debris",
        "lat": -55.37069638409725,
        "lon": 32.11028499299177,
        "alt_km": 715.8499003851512,
        "timestamp": "2025-12-11T20:41:15.465982+00:00",
        "meta_object_name": "IRIDIUM 33 DEB",
        "meta_object_id": "1997-051KM",
        "meta_epoch": "2025-12-11T02:55:05.414016",
        "meta_mean_motion": 14.5508579,
        "meta_eccentricity": 0.00110418,
        "meta_inclination": 86.378,
        "meta_ra_of_asc_node": 37.6945,
        "meta_arg_of_pericenter": 34.4543,
        "meta_mean_anomaly": 354.2887,
        "meta_ephemeris_type": 0,
        "meta_classification_type": "U",
        "meta_norad_cat_id": 34690,
        "meta_element_set_no": 999,
        "meta_rev_at_epoch": 88071,
        "meta_bstar": 0.00065168739,
        "meta_mean_motion_dot": 2.833e-05,
        "meta_mean_motion_ddot": 0,
        "tle_line1": "1 34690U 97051KM  25345.12159044  .00002833  00000+0  65169-3 0  9994",
        "tle_line2": "2 34690  86.3780  37.6945 0011041  34.4543 354.2887 14.55085790880715"
      },
      "geometry": {
        "type": "Point",
        "coordinates": [
          32.11028499299177,
          -55.37069638409725
        ]
      }
    },
    {
      "type": "Feature",
      "properties": {
        "norad_id": 34693,
        "name": "IRIDIUM 33 DEB",
        "group": "iridium-33-debris",
        "lat": 56.0960289939883,
        "lon": 118.74331997993838,
        "alt_km": 474.2283829108801,
        "timestamp": "2025-12-11T20:41:15.465992+00:00",
        "meta_object_name": "IRIDIUM 33 DEB",
        "meta_object_id": "1997-051KQ",
        "meta_epoch": "2025-12-11T09:42:36.581184",
        "meta_mean_motion": 15.27439249,
        "meta_eccentricity": 0.0014165,
        "meta_inclination": 86.3047,
        "meta_ra_of_asc_node": 304.4888,
        "meta_arg_of_pericenter": 55.718,
        "meta_mean_anomaly": 74.2343,
        "meta_ephemeris_type": 0,
        "meta_classification_type": "U",
        "meta_norad_cat_id": 34693,
        "meta_element_set_no": 999,
        "meta_rev_at_epoch": 88894,
        "meta_bstar": 0.0085161801,
        "meta_mean_motion_dot": 0.00236096,
        "meta_mean_motion_ddot": 0,
        "tle_line1": "1 34693U 97051KQ  25345.40459006  .00236096  00000+0  85162-2 0  9993",
        "tle_line2": "2 34693  86.3047 304.4888 0014165  55.7180  74.2343 15.27439249888949"
      },
      "geometry": {
        "type": "Point",
        "coordinates": [
          118.74331997993838,
          56.0960289939883
        ]
      }
    },
    {
      "type": "Feature",
      "properties": {
        "norad_id": 34696,
        "name": "IRIDIUM 33 DEB",
        "group": "iridium-33-debris",
        "lat": 50.607224090070915,
        "lon": 32.5912983699987,
        "alt_km": 698.0182288607375,
        "timestamp": "2025-12-11T20:41:15.466003+00:00",
        "meta_object_name": "IRIDIUM 33 DEB",
        "meta_object_id": "1997-051KT",
        "meta_epoch": "2025-12-11T02:33:26.982720",
        "meta_mean_motion": 14.64953116,
        "meta_eccentricity": 0.00741481,
        "meta_inclination": 86.185,
        "meta_ra_of_asc_node": 28.2818,
        "meta_arg_of_pericenter": 173.0229,
        "meta_mean_anomaly": 217.0787,
        "meta_ephemeris_type": 0,
        "meta_classification_type": "U",
        "meta_norad_cat_id": 34696,
        "meta_element_set_no": 999,
        "meta_rev_at_epoch": 86649,
        "meta_bstar": 0.0075396538,
        "meta_mean_motion_dot": 0.00042238,
        "meta_mean_motion_ddot": 0,
        "tle_line1": "1 34696U 97051KT  25345.10656230  .00042238  00000+0  75397-2 0  9993",
        "tle_line2": "2 34696  86.1850  28.2818 0074148 173.0229 217.0787 14.64953116866490"
      },
      "geometry": {
        "type": "Point",
        "coordinates": [
          32.5912983699987,
          50.607224090070915
        ]
      }
    }
  ]
}